[{"OBJECT_NAME":"NUSAT-41 (C PAYNE-G)","OBJECT_ID":"2023-084N","EPOCH":"2026-03-09T12:30:43.490016","MEAN_MOTION":15.29665757,"ECCENTRICITY":0.0006231,"INCLINATION":97.5351,"RA_OF_ASC_NODE":203.7033,"ARG_OF_PERICENTER":323.7107,"MEAN_ANOMALY":36.371,"EPHEMERIS_TYPE":0,"CLASSIFICATION_TYPE":"U","NORAD_CAT_ID":56944,"ELEMENT_SET_NO":999,"REV_AT_EPOCH":15254,"BSTAR":0.00060137,"MEAN_MOTION_DOT":0.00017238,"MEAN_MOTION_DDOT":0},{"OBJECT_NAME":"STARLINK-31017","OBJECT_ID":"2023-191H","EPOCH":"2026-03-09T12:33:26.021376","MEAN_MOTION":15.27578292,"ECCENTRICITY":0.0001668,"INCLINATION":43.0031,"RA_OF_ASC_NODE":232.1013,"ARG_OF_PERICENTER":264.6398,"MEAN_ANOMALY":95.4264,"EPHEMERIS_TYPE":0,"CLASSIFICATION_TYPE":"U","NORAD_CAT_ID":58515,"ELEMENT_SET_NO":999,"REV_AT_EPOCH":12815,"BSTAR":6.9856e-6,"MEAN_MOTION_DOT":-7.0e-7,"MEAN_MOTION_DDOT":0}]
